<?xml version="1.0" encoding="UTF-8"?>
<ndm xmlns:xsi="http://www.w3.org/2001/XMLSchema-instance" xsi:noNamespaceSchemaLocation="https://sanaregistry.org/r/ndmxml_unqualified/ndmxml-2.0.0-master-2.0.xsd">
<omm id="CCSDS_OMM_VERS" version="2.0">
<header><CREATION_DATE/><ORIGINATOR/></header><body><segment><metadata><OBJECT_NAME>IRIDIUM 26</OBJECT_NAME><OBJECT_ID>1997-043A</OBJECT_ID><CENTER_NAME>EARTH</CENTER_NAME><REF_FRAME>TEME</REF_FRAME><TIME_SYSTEM>UTC</TIME_SYSTEM><MEAN_ELEMENT_THEORY>SGP4</MEAN_ELEMENT_THEORY></metadata><data><meanElements><EPOCH>2025-12-04T06:36:22.959072</EPOCH><MEAN_MOTION>14.37317424</MEAN_MOTION><ECCENTRICITY>.00019862</ECCENTRICITY><INCLINATION>86.3968</INCLINATION><RA_OF_ASC_NODE>39.1204</RA_OF_ASC_NODE><ARG_OF_PERICENTER>97.7087</ARG_OF_PERICENTER><MEAN_ANOMALY>262.4337</MEAN_ANOMALY></meanElements><tleParameters><EPHEMERIS_TYPE>0</EPHEMERIS_TYPE><CLASSIFICATION_TYPE>U</CLASSIFICATION_TYPE><NORAD_CAT_ID>24903</NORAD_CAT_ID><ELEMENT_SET_NO>999</ELEMENT_SET_NO><REV_AT_EPOCH>48117</REV_AT_EPOCH><BSTAR>.24297024E-3</BSTAR><MEAN_MOTION_DOT>.744E-5</MEAN_MOTION_DOT><MEAN_MOTION_DDOT>0</MEAN_MOTION_DDOT></tleParameters></data></segment></body></omm>
<omm id="CCSDS_OMM_VERS" version="2.0">
<header><CREATION_DATE/><ORIGINATOR/></header><body><segment><metadata><OBJECT_NAME>IRIDIUM 22</OBJECT_NAME><OBJECT_ID>1997-043E</OBJECT_ID><CENTER_NAME>EARTH</CENTER_NAME><REF_FRAME>TEME</REF_FRAME><TIME_SYSTEM>UTC</TIME_SYSTEM><MEAN_ELEMENT_THEORY>SGP4</MEAN_ELEMENT_THEORY></metadata><data><meanElements><EPOCH>2025-12-04T06:38:38.229504</EPOCH><MEAN_MOTION>14.36113281</MEAN_MOTION><ECCENTRICITY>.00021778</ECCENTRICITY><INCLINATION>86.3972</INCLINATION><RA_OF_ASC_NODE>42.8054</RA_OF_ASC_NODE><ARG_OF_PERICENTER>97.5428</ARG_OF_PERICENTER><MEAN_ANOMALY>262.6017</MEAN_ANOMALY></meanElements><tleParameters><EPHEMERIS_TYPE>0</EPHEMERIS_TYPE><CLASSIFICATION_TYPE>U</CLASSIFICATION_TYPE><NORAD_CAT_ID>24907</NORAD_CAT_ID><ELEMENT_SET_NO>999</ELEMENT_SET_NO><REV_AT_EPOCH>48118</REV_AT_EPOCH><BSTAR>.24489931E-3</BSTAR><MEAN_MOTION_DOT>.732E-5</MEAN_MOTION_DOT><MEAN_MOTION_DDOT>0</MEAN_MOTION_DDOT></tleParameters></data></segment></body></omm>
<omm id="CCSDS_OMM_VERS" version="2.0">
<header><CREATION_DATE/><ORIGINATOR/></header><body><segment><metadata><OBJECT_NAME>DUMMY MASS 1</OBJECT_NAME><OBJECT_ID>1997-048A</OBJECT_ID><CENTER_NAME>EARTH</CENTER_NAME><REF_FRAME>TEME</REF_FRAME><TIME_SYSTEM>UTC</TIME_SYSTEM><MEAN_ELEMENT_THEORY>SGP4</MEAN_ELEMENT_THEORY></metadata><data><meanElements><EPOCH>2025-12-04T06:14:55.619808</EPOCH><MEAN_MOTION>14.87171831</MEAN_MOTION><ECCENTRICITY>.00042971</ECCENTRICITY><INCLINATION>86.3352</INCLINATION><RA_OF_ASC_NODE>56.6300</RA_OF_ASC_NODE><ARG_OF_PERICENTER>259.8012</ARG_OF_PERICENTER><MEAN_ANOMALY>100.2728</MEAN_ANOMALY></meanElements><tleParameters><EPHEMERIS_TYPE>0</EPHEMERIS_TYPE><CLASSIFICATION_TYPE>U</CLASSIFICATION_TYPE><NORAD_CAT_ID>24925</NORAD_CAT_ID><ELEMENT_SET_NO>999</ELEMENT_SET_NO><REV_AT_EPOCH>53040</REV_AT_EPOCH><BSTAR>.96505774E-4</BSTAR><MEAN_MOTION_DOT>.895E-5</MEAN_MOTION_DOT><MEAN_MOTION_DDOT>0</MEAN_MOTION_DDOT></tleParameters></data></segment></body></omm>
<omm id="CCSDS_OMM_VERS" version="2.0">
<header><CREATION_DATE/><ORIGINATOR/></header><body><segment><metadata><OBJECT_NAME>DUMMY MASS 2</OBJECT_NAME><OBJECT_ID>1997-048B</OBJECT_ID><CENTER_NAME>EARTH</CENTER_NAME><REF_FRAME>TEME</REF_FRAME><TIME_SYSTEM>UTC</TIME_SYSTEM><MEAN_ELEMENT_THEORY>SGP4</MEAN_ELEMENT_THEORY></metadata><data><meanElements><EPOCH>2025-12-04T06:01:19.407648</EPOCH><MEAN_MOTION>14.86922423</MEAN_MOTION><ECCENTRICITY>.00050566</ECCENTRICITY><INCLINATION>86.3352</INCLINATION><RA_OF_ASC_NODE>58.2737</RA_OF_ASC_NODE><ARG_OF_PERICENTER>278.0339</ARG_OF_PERICENTER><MEAN_ANOMALY>82.0312</MEAN_ANOMALY></meanElements><tleParameters><EPHEMERIS_TYPE>0</EPHEMERIS_TYPE><CLASSIFICATION_TYPE>U</CLASSIFICATION_TYPE><NORAD_CAT_ID>24926</NORAD_CAT_ID><ELEMENT_SET_NO>999</ELEMENT_SET_NO><REV_AT_EPOCH>53017</REV_AT_EPOCH><BSTAR>.96720854E-4</BSTAR><MEAN_MOTION_DOT>.892E-5</MEAN_MOTION_DOT><MEAN_MOTION_DDOT>0</MEAN_MOTION_DDOT></tleParameters></data></segment></body></omm>
<omm id="CCSDS_OMM_VERS" version="2.0">
<header><CREATION_DATE/><ORIGINATOR/></header><body><segment><metadata><OBJECT_NAME>IRIDIUM 29</OBJECT_NAME><OBJECT_ID>1997-051A</OBJECT_ID><CENTER_NAME>EARTH</CENTER_NAME><REF_FRAME>TEME</REF_FRAME><TIME_SYSTEM>UTC</TIME_SYSTEM><MEAN_ELEMENT_THEORY>SGP4</MEAN_ELEMENT_THEORY></metadata><data><meanElements><EPOCH>2025-12-04T07:23:12.216192</EPOCH><MEAN_MOTION>14.36651400</MEAN_MOTION><ECCENTRICITY>.0002295</ECCENTRICITY><INCLINATION>86.3955</INCLINATION><RA_OF_ASC_NODE>72.4835</RA_OF_ASC_NODE><ARG_OF_PERICENTER>94.6439</ARG_OF_PERICENTER><MEAN_ANOMALY>265.5021</MEAN_ANOMALY></meanElements><tleParameters><EPHEMERIS_TYPE>0</EPHEMERIS_TYPE><CLASSIFICATION_TYPE>U</CLASSIFICATION_TYPE><NORAD_CAT_ID>24944</NORAD_CAT_ID><ELEMENT_SET_NO>999</ELEMENT_SET_NO><REV_AT_EPOCH>47769</REV_AT_EPOCH><BSTAR>.29354191E-3</BSTAR><MEAN_MOTION_DOT>.883E-5</MEAN_MOTION_DOT><MEAN_MOTION_DDOT>0</MEAN_MOTION_DDOT></tleParameters></data></segment></body></omm>
<omm id="CCSDS_OMM_VERS" version="2.0">
<header><CREATION_DATE/><ORIGINATOR/></header><body><segment><metadata><OBJECT_NAME>IRIDIUM 33</OBJECT_NAME><OBJECT_ID>1997-051C</OBJECT_ID><CENTER_NAME>EARTH</CENTER_NAME><REF_FRAME>TEME</REF_FRAME><TIME_SYSTEM>UTC</TIME_SYSTEM><MEAN_ELEMENT_THEORY>SGP4</MEAN_ELEMENT_THEORY></metadata><data><meanElements><EPOCH>2025-12-04T06:27:47.288448</EPOCH><MEAN_MOTION>14.35028286</MEAN_MOTION><ECCENTRICITY>.00061908</ECCENTRICITY><INCLINATION>86.3871</INCLINATION><RA_OF_ASC_NODE>71.7767</RA_OF_ASC_NODE><ARG_OF_PERICENTER>232.9951</ARG_OF_PERICENTER><MEAN_ANOMALY>127.0679</MEAN_ANOMALY></meanElements><tleParameters><EPHEMERIS_TYPE>0</EPHEMERIS_TYPE><CLASSIFICATION_TYPE>U</CLASSIFICATION_TYPE><NORAD_CAT_ID>24946</NORAD_CAT_ID><ELEMENT_SET_NO>999</ELEMENT_SET_NO><REV_AT_EPOCH>47713</REV_AT_EPOCH><BSTAR>.25844364E-3</BSTAR><MEAN_MOTION_DOT>.755E-5</MEAN_MOTION_DOT><MEAN_MOTION_DDOT>0</MEAN_MOTION_DDOT></tleParameters></data></segment></body></omm>
<omm id="CCSDS_OMM_VERS" version="2.0">
<header><CREATION_DATE/><ORIGINATOR/></header><body><segment><metadata><OBJECT_NAME>IRIDIUM 28</OBJECT_NAME><OBJECT_ID>1997-051E</OBJECT_ID><CENTER_NAME>EARTH</CENTER_NAME><REF_FRAME>TEME</REF_FRAME><TIME_SYSTEM>UTC</TIME_SYSTEM><MEAN_ELEMENT_THEORY>SGP4</MEAN_ELEMENT_THEORY></metadata><data><meanElements><EPOCH>2025-12-04T07:31:06.667968</EPOCH><MEAN_MOTION>14.37552000</MEAN_MOTION><ECCENTRICITY>.00016491</ECCENTRICITY><INCLINATION>86.3961</INCLINATION><RA_OF_ASC_NODE>69.8993</RA_OF_ASC_NODE><ARG_OF_PERICENTER>104.6039</ARG_OF_PERICENTER><MEAN_ANOMALY>255.5342</MEAN_ANOMALY></meanElements><tleParameters><EPHEMERIS_TYPE>0</EPHEMERIS_TYPE><CLASSIFICATION_TYPE>U</CLASSIFICATION_TYPE><NORAD_CAT_ID>24948</NORAD_CAT_ID><ELEMENT_SET_NO>999</ELEMENT_SET_NO><REV_AT_EPOCH>47828</REV_AT_EPOCH><BSTAR>.28938997E-3</BSTAR><MEAN_MOTION_DOT>.886E-5</MEAN_MOTION_DOT><MEAN_MOTION_DDOT>0</MEAN_MOTION_DDOT></tleParameters></data></segment></body></omm>
<omm id="CCSDS_OMM_VERS" version="2.0">
<header><CREATION_DATE/><ORIGINATOR/></header><body><segment><metadata><OBJECT_NAME>IRIDIUM 36</OBJECT_NAME><OBJECT_ID>1997-056C</OBJECT_ID><CENTER_NAME>EARTH</CENTER_NAME><REF_FRAME>TEME</REF_FRAME><TIME_SYSTEM>UTC</TIME_SYSTEM><MEAN_ELEMENT_THEORY>SGP4</MEAN_ELEMENT_THEORY></metadata><data><meanElements><EPOCH>2025-12-04T07:40:18.597216</EPOCH><MEAN_MOTION>14.37772109</MEAN_MOTION><ECCENTRICITY>.00019717</ECCENTRICITY><INCLINATION>86.3956</INCLINATION><RA_OF_ASC_NODE>101.5248</RA_OF_ASC_NODE><ARG_OF_PERICENTER>101.1821</ARG_OF_PERICENTER><MEAN_ANOMALY>258.9599</MEAN_ANOMALY></meanElements><tleParameters><EPHEMERIS_TYPE>0</EPHEMERIS_TYPE><CLASSIFICATION_TYPE>U</CLASSIFICATION_TYPE><NORAD_CAT_ID>24967</NORAD_CAT_ID><ELEMENT_SET_NO>999</ELEMENT_SET_NO><REV_AT_EPOCH>47666</REV_AT_EPOCH><BSTAR>.28836917E-3</BSTAR><MEAN_MOTION_DOT>.887E-5</MEAN_MOTION_DOT><MEAN_MOTION_DDOT>0</MEAN_MOTION_DDOT></tleParameters></data></segment></body></omm>

</ndm>
