IRIDIUM 26              
1 24903U 97043A   25338.27526573  .00000744  00000+0  24297-3 0  9990
2 24903  86.3968  39.1204 0001986  97.7087 262.4337 14.37317424481175
IRIDIUM 22              
1 24907U 97043E   25338.27683136  .00000732  00000+0  24490-3 0  9995
2 24907  86.3972  42.8054 0002177  97.5428 262.6017 14.36113281481180
DUMMY MASS 1            
1 24925U 97048A   25338.26036597  .00000895  00000+0  96506-4 0  9990
2 24925  86.3352  56.6300 0004297 259.8012 100.2728 14.87171831530403
DUMMY MASS 2            
1 24926U 97048B   25338.25091907  .00000892  00000+0  96721-4 0  9992
2 24926  86.3352  58.2737 0005056 278.0339  82.0312 14.86922423530175
IRIDIUM 29              
1 24944U 97051A   25338.30778028  .00000883  00000+0  29354-3 0  9995
2 24944  86.3955  72.4835 0002295  94.6439 265.5021 14.36651400477697
IRIDIUM 33              
1 24946U 97051C   25338.26929732  .00000755  00000+0  25844-3 0  9990
2 24946  86.3871  71.7767 0006190 232.9951 127.0679 14.35028286477135
IRIDIUM 28              
1 24948U 97051E   25338.31327162  .00000886  00000+0  28939-3 0  9990
2 24948  86.3961  69.8993 0001649 104.6039 255.5342 14.37552000478281
IRIDIUM 36              
1 24967U 97056C   25338.31965969  .00000887  00000+0  28837-3 0  9997
2 24967  86.3956 101.5248 0001971 101.1821 258.9599 14.37772109476667
